MEAN_MOTION;ECCENTRICITY;INCLINATION;RA_OF_ASC_NODE;ARG_OF_PERICENTER;MEAN_ANOMALY;BSTAR;MEAN_MOTION_DOT;MEAN_MOTION_DDOT;TYPE
12.62264916;6.45E-5;52.0063;121.8118;148.5718;261.8269;-3.2167E-5;-1.1E-6;0;Globalstar
12.62264911;6.38E-5;52.0063;120.8651;149.1231;235.1544;-2.8951E-5;-1.09E-6;0;Globalstar
12.62264936;6.16E-5;52.0068;119.3279;150.2525;9.4289;1.1291E-5;-1.02E-6;0;Globalstar
12.62264935;5.95E-5;52.0068;116.9303;151.5019;349.0362;1.6382E-6;-1.03E-6;0;Globalstar
12.62264942;5.88E-5;52.0068;116.4426;151.6428;357.3227;8.33E-6;-1.02E-6;0;Globalstar
12.62264911;5.66E-5;52.0062;113.7924;152.0712;355.2081;5.6543E-5;-9.4E-7;0;Globalstar
12.62264924;5.33E-5;52.0062;110.6508;153.4651;5.5923;7.6253E-5;-9.0E-7;0;Globalstar
12.6226492;5.05E-5;52.0062;107.7903;154.7597;316.5709;7.0776E-5;-9.1E-7;0;Globalstar
12.62264902;4.9E-5;52.0063;106.1674;155.4027;219.6867;4.497E-5;-9.6E-7;0;Globalstar
12.62264907;4.71E-5;52.0067;104.8766;156.2975;346.5585;-2.8262E-5;-1.09E-6;0;Globalstar
12.62264904;4.52E-5;52.0068;102.5104;157.3613;279.3861;-2.1632E-5;-1.08E-6;0;Globalstar
12.622649;4.37E-5;52.0068;101.5019;157.2908;345.6373;-1.7069E-5;-1.07E-6;0;Globalstar
12.62264886;4.17E-5;52.0068;99.1176;158.3828;305.5123;-3.039E-5;-1.09E-6;0;Globalstar
12.62264881;3.86E-5;52.0069;95.477;159.4576;341.6364;-3.1192E-5;-1.09E-6;0;Globalstar
12.62264883;3.83E-5;52.0069;95.2232;159.5365;0.5595;-2.9947E-5;-1.09E-6;0;Globalstar
12.62264894;3.61E-5;52.0069;92.3376;160.6986;349.0523;-2.6594E-5;-1.09E-6;0;Globalstar
12.62264879;3.3E-5;52.007;88.5391;162.1149;260.9672;-4.0976E-5;-1.11E-6;0;Globalstar
12.62264867;3.23E-5;52.007;88.0786;161.3924;229.365;-4.878E-5;-1.13E-6;0;Globalstar
12.62264882;3.08E-5;52.0065;86.3103;160.4146;350.9409;-6.1071E-5;-1.15E-6;0;Globalstar
12.62264866;2.99E-5;52.0066;85.403;160.5673;265.8796;-5.925E-5;-1.14E-6;0;Globalstar
12.62264857;2.96E-5;52.0066;85.1493;160.5202;284.7337;-5.9979E-5;-1.15E-6;0;Globalstar
12.62264832;2.71E-5;52.0067;83.1702;157.89;3.1608;-4.6646E-5;-1.12E-6;0;Globalstar
12.62264857;2.67E-5;52.0073;82.0496;159.8781;235.446;-6.0397E-5;-1.15E-6;0;Globalstar
12.62264873;2.64E-5;52.0073;81.2809;160.06;303.3198;-5.2489E-5;-1.13E-6;0;Globalstar
12.62264871;2.57E-5;52.0068;80.0335;160.3298;5.3456;-7.2012E-6;-1.05E-6;0;Globalstar
12.62264844;2.45E-5;52.0069;78.9195;158.966;230.511;-6.7399E-6;-1.05E-6;0;Globalstar
12.62264878;2.33E-5;52.007;77.1744;158.4667;317.3133;2.2841E-5;-1.0E-6;0;Globalstar
12.62264843;2.18E-5;52.0071;76.0199;156.6612;243.505;3.7511E-6;-1.03E-6;0;Globalstar
12.62264828;1.95E-5;52.0072;73.0968;154.2984;291.7294;-8.5355E-6;-1.05E-6;0;Globalstar
12.62264835;1.94E-5;52.0077;72.8936;156.2328;233.8149;-6.4281E-5;-1.15E-6;0;Globalstar
12.6226483;1.73E-5;52.0078;69.9651;152.2227;291.745;-6.2252E-5;-1.15E-6;0;Globalstar
12.62264848;1.72E-5;52.0075;69.226;148.2451;319.048;-2.0038E-5;-1.07E-6;0;Globalstar
12.62264814;1.58E-5;52.008;66.8563;147.27;259.7115;-6.0669E-5;-1.15E-6;0;Globalstar
12.62264831;1.49E-5;52.0077;65.3454;140.6099;2.6053;-4.8932E-5;-1.13E-6;0;Globalstar
12.6226484;1.35E-5;52.0079;62.9636;135.831;324.9519;-5.6134E-5;-1.14E-6;0;Globalstar
12.62264855;1.3E-5;52.0079;62.2058;130.1436;22.4822;-4.0092E-5;-1.11E-6;0;Globalstar
12.6226484;1.13E-5;52.0082;56.9375;117.7644;343.4375;-6.7031E-5;-1.16E-6;0;Globalstar
12.62264821;1.12E-5;52.0082;56.1798;111.9665;40.9407;-8.3579E-5;-1.19E-6;0;Globalstar
12.62264794;1.19E-5;52.0085;51.8793;94.8769;1.1891;-6.7708E-5;-1.16E-6;0;Globalstar
12.62264805;1.23E-5;52.0085;51.6322;94.7204;10.3958;-6.6164E-5;-1.16E-6;0;Globalstar
12.62264823;1.25E-5;52.0086;50.1536;88.9292;64.697;-3.5469E-5;-1.1E-6;0;Globalstar
12.62264812;1.32E-5;52.0087;48.2758;83.9667;354.3443;-3.1432E-5;-1.09E-6;0;Globalstar
12.62264836;1.49E-5;52.009;44.614;75.2503;72.4816;1.261E-5;-1.02E-6;0;Globalstar
12.62264825;1.68E-5;52.0092;41.4696;69.4634;94.8898;1.4577E-5;-1.01E-6;0;Globalstar
12.62264808;1.89E-5;52.0093;39.3608;70.4292;3.7445;-1.8021E-6;-1.04E-6;0;Globalstar
12.62264818;2.05E-5;52.0094;36.726;68.1784;341.4826;5.0315E-6;-1.03E-6;0;Globalstar
12.62264815;2.06E-5;52.0094;36.4683;68.6894;5.9405;-4.009E-6;-1.04E-6;0;Globalstar
12.62264838;2.24E-5;52.0096;33.5825;66.3644;358.6688;6.6933E-7;-1.04E-6;0;Globalstar
12.62264856;2.24E-5;52.0096;33.3353;65.6797;8.6396;8.0981E-6;-1.02E-6;0;Globalstar
12.6226488;2.4E-5;52.0097;30.4728;64.6264;325.3507;1.3576E-5;-1.01E-6;0;Globalstar
12.62264868;2.44E-5;52.0097;29.7115;64.1151;23.0619;1.2103E-5;-1.02E-6;0;Globalstar
12.62264883;2.63E-5;52.0098;27.31;62.7726;11.4299;3.9787E-6;-1.03E-6;0;Globalstar
12.62264906;2.76E-5;52.0098;24.1616;61.734;35.02;2.3709E-5;-1.0E-6;0;Globalstar
12.62264958;2.95E-5;52.0098;21.5288;61.6303;7.6919;6.1642E-5;-9.3E-7;0;Globalstar
12.62268967;3.39E-5;52.0099;20.0247;62.6707;93.3348;7.7296E-5;-9.0E-7;0;Globalstar
12.62268949;3.42E-5;52.0099;17.368;63.3989;100.704;3.2184E-5;-9.8E-7;0;Globalstar
12.62268936;3.53E-5;52.0099;15.2584;62.8177;12.1597;3.2287E-5;-9.8E-7;0;Globalstar
12.62268933;3.47E-5;52.0101;13.999;62.6546;93.6217;-4.9065E-5;-1.13E-6;0;Globalstar
12.62268928;3.5E-5;52.0101;12.1226;63.4003;15.6333;-4.1411E-5;-1.11E-6;0;Globalstar
12.62268925;3.72E-5;52.0101;9.233;64.54;10.5704;-3.2325E-5;-1.1E-6;0;Globalstar
12.62268949;4.07E-5;52.0099;6.0796;65.1044;40.1234;3.8776E-5;-9.7E-7;0;Globalstar
12.62268971;4.15E-5;52.0098;5.1136;64.9826;43.1655;5.5467E-5;-9.4E-7;0;Globalstar
12.62268983;4.3E-5;52.0098;2.9424;65.9538;45.1638;4.9929E-5;-9.5E-7;0;Globalstar
12.62269001;4.37E-5;52.0098;2.202;65.4967;71.5801;6.1902E-5;-9.3E-7;0;Globalstar
12.62269015;4.41E-5;52.0098;0.8246;65.5823;328.8615;6.0117E-5;-9.3E-7;0;Globalstar
12.62268997;4.5E-5;52.0098;0.0602;66.6712;29.5276;3.375E-5;-9.8E-7;0;Globalstar
12.62269034;4.55E-5;52.0097;359.3218;66.6688;52.5122;6.3366E-5;-9.2E-7;0;Globalstar
12.62269046;4.64E-5;52.0096;357.1818;67.6098;8.0619;4.6045E-5;-9.6E-7;0;Globalstar
12.62269061;4.8E-5;52.0095;354.046;68.2704;11.1503;4.4116E-5;-9.6E-7;0;Globalstar
12.62269079;4.89E-5;52.0094;350.6555;69.395;34.1076;5.9442E-5;-9.3E-7;0;Globalstar
12.62269074;4.97E-5;52.0094;350.1505;68.5838;69.2471;5.5281E-5;-9.4E-7;0;Globalstar
12.62269069;5.0E-5;52.0093;347.7818;70.0355;5.6844;5.0781E-5;-9.5E-7;0;Globalstar
12.62269091;5.06E-5;52.0092;347.0091;70.1156;79.6595;6.8832E-5;-9.1E-7;0;Globalstar
12.62269069;5.09E-5;52.0091;344.6295;71.1762;32.7718;5.8227E-5;-9.3E-7;0;Globalstar
12.62269098;5.12E-5;52.0091;343.8695;70.9696;88.1017;7.5614E-5;-9.0E-7;0;Globalstar
12.62269103;5.15E-5;52.009;341.9948;71.8922;7.223;7.5066E-5;-9.0E-7;0;Globalstar
12.62269121;5.19E-5;52.0089;339.8606;71.9084;314.7723;9.7096E-5;-8.6E-7;0;Globalstar
12.62269096;5.21E-5;52.0088;338.6035;72.6897;31.4953;7.5606E-5;-9.0E-7;0;Globalstar
12.62269107;5.07E-5;52.0092;338.3325;71.9899;76.6888;2.8898E-5;-9.9E-7;0;Globalstar
12.62269125;5.08E-5;52.0091;335.9539;73.8935;27.3484;3.5882E-5;-9.7E-7;0;Globalstar
12.62269131;5.12E-5;52.009;333.8351;74.175;311.7063;3.315E-5;-9.8E-7;0;Globalstar
12.62269115;5.18E-5;52.0089;332.5772;75.6866;28.935;2.8407E-5;-9.9E-7;0;Globalstar
12.6226911;5.15E-5;52.0089;331.4101;77.4353;330.3766;2.7865E-5;-9.9E-7;0;Globalstar
12.62269135;5.33E-5;52.0084;329.6847;78.5528;26.4957;3.1607E-5;-9.8E-7;0;Globalstar
12.62269152;5.36E-5;52.0084;328.9322;78.4953;70.5654;3.4215E-5;-9.8E-7;0;Globalstar
12.62269151;5.4E-5;52.0083;326.5512;79.7833;25.3905;1.8985E-5;-1.0E-6;0;Globalstar
12.62269126;5.23E-5;52.0086;325.7882;79.5403;84.9616;2.6097E-5;-9.9E-7;0;Globalstar
12.62269167;5.24E-5;52.0085;323.4257;81.1482;11.7398;4.3258E-5;-9.6E-7;0;Globalstar
12.62269181;5.46E-5;52.008;320.5251;82.639;22.9145;2.2182E-5;-1.0E-6;0;Globalstar
12.62269166;5.47E-5;52.0078;316.8797;84.1857;65.9566;1.38E-5;-1.01E-6;0;Globalstar
12.62269159;5.47E-5;52.0078;315.0002;84.8274;352.3166;1.3147E-5;-1.01E-6;0;Globalstar
12.62269179;5.48E-5;52.0077;313.7393;85.0401;75.2492;3.1487E-5;-9.8E-7;0;Globalstar
12.62269192;5.25E-5;52.0082;311.3743;85.7348;6.6309;1.8284E-5;-1.0E-6;0;Globalstar
12.62269179;5.46E-5;52.0077;309.4956;87.1904;291.066;5.7132E-5;-9.4E-7;0;Globalstar
12.62269191;5.48E-5;52.0077;309.2482;86.9957;300.799;6.0091E-5;-9.3E-7;0;Globalstar
12.62269192;5.55E-5;52.0077;308.227;85.9822;27.0326;7.787E-5;-9.0E-7;0;Globalstar
12.62269188;5.55E-5;52.0077;307.9421;86.0214;92.4009;7.0502E-5;-9.1E-7;0;Globalstar
12.62269215;5.31E-5;52.0082;305.3481;87.0815;5.7868;1.1331E-5;-1.02E-6;0;Globalstar
12.62269215;5.5E-5;52.0077;302.2006;88.0748;25.3683;6.8645E-5;-9.1E-7;0;Globalstar
12.62269221;5.49E-5;52.0077;301.9405;88.4215;53.5757;6.5598E-5;-9.2E-7;0;Globalstar
12.62269221;5.49E-5;52.0077;299.0607;88.8203;34.275;3.8361E-5;-9.7E-7;0;Globalstar
12.62269223;5.48E-5;52.0077;298.7999;88.8692;63.6714;3.3123E-5;-9.8E-7;0;Globalstar
12.62269234;5.44E-5;52.0077;296.1744;89.6818;24.2308;1.3788E-5;-1.01E-6;0;Globalstar
12.62269235;5.37E-5;52.0077;293.8007;91.1293;327.9349;-2.5404E-5;-1.08E-6;0;Globalstar
12.62269233;5.38E-5;52.0077;293.0342;90.7999;33.1593;-2.2374E-5;-1.08E-6;0;Globalstar
12.62269234;5.32E-5;52.0076;290.123;91.2178;60.816;-3.7576E-5;-1.11E-6;0;Globalstar
12.62269246;5.2E-5;52.0076;287.0083;92.9557;30.9181;-3.2302E-5;-1.1E-6;0;Globalstar
12.62269237;5.19E-5;52.0076;286.7481;92.7484;59.8639;-4.3268E-5;-1.12E-6;0;Globalstar
12.62269258;5.13E-5;52.0075;284.1219;93.4265;21.5886;-1.4396E-6;-1.04E-6;0;Globalstar
12.62269241;5.06E-5;52.0075;282.2467;94.1904;301.4767;-1.2324E-5;-1.06E-6;0;Globalstar
12.62269222;5.08E-5;52.0075;281.7351;94.0584;345.7308;-1.6297E-5;-1.07E-6;0;Globalstar
12.62269247;5.05E-5;52.0075;280.9748;94.1408;41.1462;1.9418E-5;-1.0E-6;0;Globalstar
12.62269246;5.02E-5;52.0075;279.1164;94.568;296.3543;2.781E-5;-9.9E-7;0;Globalstar
12.62269267;4.97E-5;52.0075;277.836;94.5181;48.7446;6.2438E-5;-9.3E-7;0;Globalstar
12.62269259;4.94E-5;52.0075;275.9546;94.7789;338.3492;6.2425E-5;-9.3E-7;0;Globalstar
12.62269295;4.92E-5;52.0075;274.9483;94.8564;41.3026;0.0001065;-8.5E-7;0;Globalstar
12.62269315;4.85E-5;52.0075;272.3299;95.3585;351.6191;0.00012133;-8.2E-7;0;Globalstar
